CZ-4B R/B               
1 28059U 03049C   18339.39263369  .00000011  00000-0  14458-4 0  9993
2 28059  98.5055 239.1577 0051045  51.1917  76.9281 14.52545388801514
CZ-2C R/B               
1 28222U 04012C   18340.48941741  .00000149  00000-0  12992-4 0  9998
2 28222  97.5991 294.6304 0048518 142.5991 334.7471 15.09901139801672
SL-16 R/B               
1 28353U 04021B   18340.42972006 -.00000297  00000-0 -13053-3 0  9999
2 28353  71.0017  31.7542 0002597 116.6849 243.4540 14.14212344748118
CZ-2C R/B               
1 28480U 04046B   18339.85814587 -.00000012  00000-0  10332-4 0  9993
2 28480  98.1598  45.6848 0143146  80.3332 321.9316 14.25687558730700
ARIANE 5 R/B            
1 28499U 04049H   18340.17558588  .00000021  00000-0  10217-4 0  9990
2 28499  98.0566  70.4327 0090924 281.0647 135.8591 14.79935346753416
CZ-2D R/B               
1 28738U 05024B   18340.11285097  .00000328  00000-0  22948-4 0  9990
2 28738  97.4365   9.5535 0010965 321.1260  38.9181 15.11673420736913
SUZAKU (ASTRO-EII)      
1 28773U 05025A   18339.54167632  .00000727  00000-0  31740-4 0  9992
2 28773  31.3836  55.2910 0004713 334.7405  25.3011 15.16815317738857
ALOS (DAICHI)           
1 28931U 06002A   18340.36340869  .00000145  00000-0  37105-4 0  9996
2 28931  97.8172 344.8598 0002545  61.1507 298.9944 14.62556672685970
H-2A R/B                
1 28932U 06002B   18340.48671683  .00000384  00000-0  41705-4 0  9997
2 28932  98.2542 291.4558 0089132 351.8821 119.9125 14.91849091697906
AKARI (ASTRO-F)         
1 28939U 06005A   18340.15915237  .00001671  00000-0  49729-4 0  9991
2 28939  98.1917 243.5285 0100880 118.0003 243.1487 15.31591501695232
RESURS-DK 1             
1 29228U 06021A   18340.24205752  .00000060  00000-0  11913-4 0  9990
2 29228  69.9340 171.4325 0007580 251.0125 109.0214 15.02383263688759
GENESIS 1               
1 29252U 06029A   18339.50283232  .00000239  00000-0  22019-4 0  9998
2 29252  64.5042 332.7745 0050386 273.0208  86.5150 15.17509040683192
CZ-4B R/B               
1 29507U 06046C   18339.92006259  .00000728  00000-0  61766-4 0  9993
2 29507  97.7729 352.7416 0046856 244.3388 115.2992 15.00353089661461
CZ-2C R/B               
1 31114U 07010B   18340.26044566  .00000011  00000-0  23573-4 0  9993
2 31114  98.3365 218.2886 0060879  95.1213 265.6916 14.19281840603701
COSMO-SKYMED 1          
1 31598U 07023A   18340.35531291  .00000317  00000-0  46324-4 0  9997
2 31598  97.8846 161.4884 0001432  84.0515 276.0862 14.82161267622015
GENESIS 2               
1 31789U 07028A   18340.20837653  .00000198  00000-0  20443-4 0  9990
2 31789  64.5043  10.4451 0035917 311.8872  47.9187 15.16738073630334
COSMOS 2428             
1 31792U 07029A   18340.44287528 -.00000184  00000-0 -73859-4 0  9997
2 31792  70.9655   5.6360 0009790 199.3490 160.7261 14.12547992589926
SL-16 R/B               
1 31793U 07029B   18339.52841343 -.00000205  00000-0 -82273-4 0  9990
2 31793  70.9746 342.5466 0002168 275.1277 213.9391 14.14403879590515
KORONAS-FOTON           
1 33504U 09003A   18340.17732810  .00000627  00000-0  31431-4 0  9993
2 33504  82.4440  59.1597 0020508  56.5143 303.8046 15.15296161542781
H-2A R/B                
1 38341U 12025E   18340.18924553  .00000105  00000-0  19931-4 0  9995
2 38341  98.4321  91.7053 0054849 229.5077 130.1349 14.83823242354500
CUSAT 2 & FALCON 9 R/B  
1 39271U 13055G   18339.93155001  .00003203  00000-0  78013-4 0  9995
2 39271  80.9654 146.5438 0609060  46.7168 318.3190 14.43213985269899
ALOS-2                  
1 39766U 14029A   18340.32272707 -.00000114  00000-0 -84391-5 0  9991
2 39766  97.9227  74.9480 0001514  94.9851 265.1546 14.79469540245029
SL-27 R/B               
1 40354U 14084B   18340.17174407  .00000931  00000-0  24541-4 0  9993
2 40354  74.7385 104.4068 0039206 217.4971 142.3506 15.39393870222450
ASTRO-H (HITOMI)        
1 41337U 16012A   18340.16935870  .00000246  00000-0  13071-4 0  9991
2 41337  31.0064 315.4437 0012476 304.5959  55.3499 14.98528564153530
TIANGONG-2              
1 41765U 16057A   18340.32512859  .00003742  00000-0  49317-4 0  9997
2 41765  42.7859  36.4139 0007843   2.0501  40.6420 15.60142024126905
SHENZHOU-11 MODULE      
1 41868U 16061G   18339.51077917  .00010352  00000-0  69024-4 0  9998
2 41868  42.7938 351.2437 0002196 133.5527 358.9752 15.75481289117278
